NIMIQ 2                 
1 27632U 02062A   26202.59469524 -.00000074  00000+0  00000+0 0  9996
2 27632   9.5231  56.5306 0005501  58.7853 288.9105  1.00272511 44521
ANIK F2                 
1 28378U 04027A   26202.59434858 -.00000051  00000+0  00000+0 0  9994
2 28378   3.3743  78.9883 0003765  35.2131 287.9867  1.00272411 41605
ANIK F1R                
1 28868U 05036A   26202.45541230 -.00000077  00000+0  00000+0 0  9995
2 28868   4.3981  76.1531 0003977  23.2091 256.4917  1.00272403 46794
ANIK F3                 
1 31102U 07009A   26202.59278856  .00000000  00000+0  00000+0 0  9993
2 31102   1.2843  83.4443 0002723  36.7066 273.8853  1.00273097 46909
NIMIQ 4                 
1 33373U 08044A   26202.60006860 -.00000218  00000+0  00000+0 0  9993
2 33373   0.0224  62.5051 0001783  52.3910 318.4702  1.00270062 65326
TELSTAR 11N             
1 34111U 09009A   26202.39504997  .00000000  00000+0  00000+0 0  9994
2 34111   0.0186  49.4018 0002565  63.8788 290.5496  1.00269611 46585
TERRESTAR-1             
1 35496U 09035A   26202.25044965 -.00000059  00000+0  00000+0 0  9994
2 35496   5.2021  48.7669 0002535  65.2145 164.1963  1.00270569 62476
NIMIQ 5                 
1 35873U 09050A   26202.20509463 -.00000256  00000+0  00000+0 0  9993
2 35873   0.0228 287.1519 0002901 185.0608 187.8885  1.00272001 61682
SKYTERRA 1              
1 37218U 10061A   26202.59625525 -.00000120  00000+0  00000+0 0  9992
2 37218   5.1964  50.7968 0002659  30.2899 331.5822  1.00272207 57542
TELSTAR 14R             
1 37602U 11021A   26202.59790192 -.00000004  00000+0  00000+0 0  9990
2 37602   0.0997  85.0198 0008012 294.1548  42.2541  0.98982153 56172
NIMIQ 6                 
1 38342U 12026A   26202.59824860 -.00000172  00000+0  00000+0 0  9994
2 38342   0.0563 263.9258 0002967 218.2998 301.3939  1.00271310 50754
ANIK G1                 
1 39127U 13014A   26202.59504191 -.00000072  00000+0  00000+0 0  9995
2 39127   0.0106  16.1199 0001964 109.7636 280.3801  1.00272428 48594
TELSTAR 12V             
1 41036U 15068A   26202.61324200 -.00000117  00000+0  00000+0 0  9992
2 41036   0.0188  78.9276 0002364  36.4750  29.7220  1.00271482 38976
VIASAT-2                
1 42740U 17029A   26202.24608056 -.00000264  00000+0  00000+0 0  9990
2 42740   0.0209 299.9104 0000491 218.8013 158.9714  1.00271019 33542
LEO 1 (LEO VANTAGE 1)   
1 43113U 18004C   26202.33054491  .00003266  00000+0  22895-3 0  9991
2 43113  99.2403 125.0817 0348874 334.8294  23.6248 14.68059062442491
TELSTAR 19V             
1 43562U 18059A   26202.46126782 -.00000278  00000+0  00000+0 0  9997
2 43562   0.0327 180.6847 0002929 302.6491 278.9400  1.00274162 29481
TELSTAR 18V             
1 43611U 18069A   26202.64363374 -.00000292  00000+0  00000+0 0  9999
2 43611   0.0285 276.3956 0001954 201.4220 191.2972  1.00271210 28982
AMOS-17                 
1 44479U 19050A   26202.61965536  .00000111  00000+0  00000+0 0  9997
2 44479   0.0168  17.7519 0001568  96.5771  65.1168  1.00270360 25531
